{
  "type": "FeatureCollection",
  "features": [
    {
      "type": "Feature",
      "properties": {
        "nome": "Parque Portugal (Lagoa do Taquaral)",
        "tipo": "parque",
        "descricao": "Área verde e lagoa"
      },
      "geometry": {
        "type": "Polygon",
        "coordinates": [[
          [-47.052, -22.869],
          [-47.048, -22.869],
          [-47.048, -22.874],
          [-47.052, -22.874],
          [-47.052, -22.869]
        ]]
      }
    },
    {
      "type": "Feature",
      "properties": {
        "nome": "Bosque dos Jequitibás",
        "tipo": "bosque",
        "descricao": "Área verde urbana"
      },
      "geometry": {
        "type": "Polygon",
        "coordinates": [[
          [-47.062, -22.903],
          [-47.058, -22.903],
          [-47.058, -22.907],
          [-47.062, -22.907],
          [-47.062, -22.903]
        ]]
      }
    },
    {
      "type": "Feature",
      "properties": {
        "nome": "Mata Santa Genebra",
        "tipo": "mata",
        "descricao": "Fragmento florestal"
      },
      "geometry": {
        "type": "Polygon",
        "coordinates": [[
          [-47.092, -22.968],
          [-47.078, -22.968],
          [-47.078, -22.978],
          [-47.092, -22.978],
          [-47.092, -22.968]
        ]]
      }
    }
  ]
}
